RS-44 & BREEZE-KM R/B   
1 44909U 19096E   26193.88299728  .00000001  00000+0 -49149-4 0  9997
2 44909  82.5240 322.6303 0218557  84.3723 278.2256 12.79748948305631
JILIN-1 KUANFU 01       
1 45016U 20003A   26194.18234544  .00001499  00000+0  93890-4 0  9999
2 45016  97.5021 267.6311 0009077 204.3152 155.7651 15.10860662359257
XINGYUN-2 01            
1 45602U 20028A   26194.15298661  .00001068  00000+0  66037-4 0  9999
2 45602  97.4874 186.0412 0010928 109.5874 250.6537 15.11910996338761
XINGYUN-2 02            
1 45603U 20028B   26194.20246834  .00001129  00000+0  70145-4 0  9994
2 45603  97.5076 199.7380 0010895 172.3603 187.7795 15.11635812338760
HAIYANG-1D              
1 45721U 20036A   26194.13554325  .00000154  00000+0  70322-4 0  9997
2 45721  98.4553 135.2519 0004063  74.4913 285.6721 14.34181869318695
M2 PATHFINDER           
1 45727U 20037E   26193.98130639  .00000905  00000+0  68591-4 0  9993
2 45727  97.8146  25.5047 0013090  69.3329 290.9298 15.04787964329374
GAOFEN DUOMO (GFDM)     
1 45856U 20042A   26194.22370382  .00000100  00000+0  21140-4 0  9997
2 45856  97.7740 253.1614 0010809 357.0812   3.0334 14.76913137324857
ZIYUAN 3-03 (ZY 3-03)   
1 45939U 20051A   26194.16482603  .00000132  00000+0  90625-5 0  9992
2 45939  97.5373 261.1811 0002729 256.8203 103.2728 15.21191315331292
NEMO-HD                 
1 46277U 20061F   26194.16869675  .00007852  00000+0  16776-3 0  9996
2 46277  97.1911 255.8656 0000979  90.1415 269.9947 15.45112007325998
NAPA-1                  
1 46320U 20061BA  26194.17032935  .00061288  00000+0  47355-3 0  9997
2 46320  97.2445 269.2696 0002542 177.5307 182.5970 15.71732459325816
JILIN-1 GAOFEN 3E       
1 46457U 20065D   26194.11288589  .00056878  00000+0  53215-3 0  9995
2 46457  97.2216 247.3787 0010582  79.0892 281.1559 15.67017741323811
JILIN-1 GAOFEN 3F       
1 46458U 20065E   26194.18712454  .00045456  00000+0  48424-3 0  9992
2 46458  97.2175 244.6571 0011882  64.9027 295.3464 15.63774495323762
JILIN-1 GAOFEN 3G       
1 46459U 20065F   26194.21666648  .00084376  00000+0  52757-3 0  9998
2 46459  97.2237 251.9695 0005162 283.8987  76.1704 15.76586077324035
JILIN-1 GAOFEN 3H       
1 46460U 20065G   26194.19070065  .00067138  00000+0  51206-3 0  9994
2 46460  97.2181 248.0929 0006137 208.8083 151.2842 15.72001557323969
HAIYANG-2C              
1 46469U 20066A   26194.19187440 -.00000215  00000+0 -12163-3 0  9994
2 46469  65.9958 150.5379 0007742 237.1763 122.8560 13.83372190293096
HJ-2A                   
1 46478U 20067A   26194.18789221  .00000582  00000+0  90622-4 0  9991
2 46478  97.8827 271.9444 0004018 161.1654 198.9705 14.76548306312098
HJ-2B                   
1 46479U 20067B   26194.15659745  .00000065  00000+0  16509-4 0  9994
2 46479  97.8892 272.9568 0001902 107.2526 252.8893 14.76508337312095
GONETS-M 17             
1 46486U 20068A   26194.12970543 -.00000020  00000+0 -21396-3 0  9994
2 46486  82.5003 331.3626 0021926 341.2695  18.7576 12.42873951262389
GONETS-M 18             
1 46487U 20068B   26194.17385013 -.00000012  00000+0 -15651-3 0  9990
2 46487  82.4957 330.4432 0019144 337.7823  22.2425 12.42874869262375
GONETS-M 19             
1 46488U 20068C   26194.14890450 -.00000103  00000+0 -81787-3 0  9998
2 46488  82.4982 330.9138 0013155 354.6626   5.4311 12.42892483262477
DEKART                  
1 46493U 20068H   26194.17232332  .00008112  00000+0  21976-3 0  9996
2 46493  97.8737 205.3141 0009033 179.7468 180.3782 15.37920693319762
NORBI                   
1 46494U 20068J   26194.19054728  .00015418  00000+0  28078-3 0  9997
2 46494  97.8613 212.4682 0008178 149.8017 210.3706 15.49559781320235
SALSAT                  
1 46495U 20068K   26193.91391395  .00004828  00000+0  16824-3 0  9990
2 46495  97.8853 198.5521 0008922 201.3461 158.7407 15.30153171319292
ICEYE-X6                
1 46497U 20068M   26194.12803678  .00001975  00000+0  14522-3 0  9991
2 46497  98.0985 189.0425 0007409  16.1650 343.9809 15.04660083317133
NETSAT-4                
1 46504U 20068U   26193.97858387  .00013082  00000+0  28211-3 0  9991
2 46504  97.8603 204.3078 0004497 201.3286 158.7775 15.44709153319758
NETSAT-3                
1 46505U 20068V   26193.55053396  .00011703  00000+0  26275-3 0  9999
2 46505  97.8651 202.0304 0003506 222.8875 137.2098 15.43547770319597
NETSAT-1                
1 46506U 20068W   26193.95109642  .00008370  00000+0  24743-3 0  9994
2 46506  97.8748 196.4849 0002410 276.5907  83.5061 15.35213925319259
NETSAT-2                
1 46507U 20068X   26193.46346907  .00015171  00000+0  30146-3 0  9999
2 46507  97.8611 203.7420 0001783 220.9475 139.1640 15.47081469319644
