OBJECT_NAME,OBJECT_ID,EPOCH,MEAN_MOTION,ECCENTRICITY,INCLINATION,RA_OF_ASC_NODE,ARG_OF_PERICENTER,MEAN_ANOMALY,EPHEMERIS_TYPE,CLASSIFICATION_TYPE,NORAD_CAT_ID,ELEMENT_SET_NO,REV_AT_EPOCH,BSTAR,MEAN_MOTION_DOT,MEAN_MOTION_DDOT
RS-44 & BREEZE-KM R/B,2019-096E,2026-07-12T21:11:30.964992,12.79748948,.0218557,82.5240,322.6303,84.3723,278.2256,0,U,44909,999,30563,-.49149E-4,.1E-7,0
JILIN-1 KUANFU 01,2020-003A,2026-07-13T04:22:34.646016,15.10860662,.0009077,97.5021,267.6311,204.3152,155.7651,0,U,45016,999,35925,.9389E-4,.1499E-4,0
XINGYUN-2 01,2020-028A,2026-07-13T03:40:18.043104,15.11910996,.0010928,97.4874,186.0412,109.5874,250.6537,0,U,45602,999,33876,.66037E-4,.1068E-4,0
XINGYUN-2 02,2020-028B,2026-07-13T04:51:33.264576,15.11635812,.0010895,97.5076,199.7380,172.3603,187.7795,0,U,45603,999,33876,.70145E-4,.1129E-4,0
HAIYANG-1D,2020-036A,2026-07-13T03:15:10.936800,14.34181869,.0004063,98.4553,135.2519,74.4913,285.6721,0,U,45721,999,31869,.70322E-4,.154E-5,0
M2 PATHFINDER,2020-037E,2026-07-12T23:33:04.872096,15.04787964,.001309,97.8146,25.5047,69.3329,290.9298,0,U,45727,999,32937,.68591E-4,.905E-5,0
GAOFEN DUOMO (GFDM),2020-042A,2026-07-13T05:22:08.010048,14.76913137,.0010809,97.7740,253.1614,357.0812,3.0334,0,U,45856,999,32485,.2114E-4,.1E-5,0
ZIYUAN 3-03 (ZY 3-03),2020-051A,2026-07-13T03:57:20.968992,15.21191315,.0002729,97.5373,261.1811,256.8203,103.2728,0,U,45939,999,33129,.90625E-5,.132E-5,0
NEMO-HD,2020-061F,2026-07-13T04:02:55.399200,15.45112007,.0000979,97.1911,255.8656,90.1415,269.9947,0,U,46277,999,32599,.16776E-3,.7852E-4,0
NAPA-1,2020-061BA,2026-07-13T04:05:16.455840,15.71732459,.0002542,97.2445,269.2696,177.5307,182.5970,0,U,46320,999,32581,.47355E-3,.61288E-3,0
JILIN-1 GAOFEN 3E,2020-065D,2026-07-13T02:42:33.340896,15.67017741,.0010582,97.2216,247.3787,79.0892,281.1559,0,U,46457,999,32381,.53215E-3,.56878E-3,0
JILIN-1 GAOFEN 3F,2020-065E,2026-07-13T04:29:27.560256,15.63774495,.0011882,97.2175,244.6571,64.9027,295.3464,0,U,46458,999,32376,.48424E-3,.45456E-3,0
JILIN-1 GAOFEN 3G,2020-065F,2026-07-13T05:11:59.983872,15.76586077,.0005162,97.2237,251.9695,283.8987,76.1704,0,U,46459,999,32403,.52757E-3,.84376E-3,0
JILIN-1 GAOFEN 3H,2020-065G,2026-07-13T04:34:36.536160,15.72001557,.0006137,97.2181,248.0929,208.8083,151.2842,0,U,46460,999,32396,.51206E-3,.67138E-3,0
HAIYANG-2C,2020-066A,2026-07-13T04:36:17.948160,13.83372190,.0007742,65.9958,150.5379,237.1763,122.8560,0,U,46469,999,29309,-.12163E-3,-.215E-5,0
HJ-2A,2020-067A,2026-07-13T04:30:33.886944,14.76548306,.0004018,97.8827,271.9444,161.1654,198.9705,0,U,46478,999,31209,.90622E-4,.582E-5,0
HJ-2B,2020-067B,2026-07-13T03:45:30.019680,14.76508337,.0001902,97.8892,272.9568,107.2526,252.8893,0,U,46479,999,31209,.16509E-4,.65E-6,0
GONETS-M 17,2020-068A,2026-07-13T03:06:46.549152,12.42873951,.0021926,82.5003,331.3626,341.2695,18.7576,0,U,46486,999,26238,-.21396E-3,-.2E-6,0
GONETS-M 18,2020-068B,2026-07-13T04:10:20.651232,12.42874869,.0019144,82.4957,330.4432,337.7823,22.2425,0,U,46487,999,26237,-.15651E-3,-.12E-6,0
GONETS-M 19,2020-068C,2026-07-13T03:34:25.348800,12.42892483,.0013155,82.4982,330.9138,354.6626,5.4311,0,U,46488,999,26247,-.81787E-3,-.103E-5,0
DEKART,2020-068H,2026-07-13T04:08:08.734848,15.37920693,.0009033,97.8737,205.3141,179.7468,180.3782,0,U,46493,999,31976,.21976E-3,.8112E-4,0
NORBI,2020-068J,2026-07-13T04:34:23.284992,15.49559781,.0008178,97.8613,212.4682,149.8017,210.3706,0,U,46494,999,32023,.28078E-3,.15418E-3,0
SALSAT,2020-068K,2026-07-12T21:56:02.165280,15.30153171,.0008922,97.8853,198.5521,201.3461,158.7407,0,U,46495,999,31929,.16824E-3,.4828E-4,0
ICEYE-X6,2020-068M,2026-07-13T03:04:22.377792,15.04660083,.0007409,98.0985,189.0425,16.1650,343.9809,0,U,46497,999,31713,.14522E-3,.1975E-4,0
NETSAT-4,2020-068U,2026-07-12T23:29:09.646368,15.44709153,.0004497,97.8603,204.3078,201.3286,158.7775,0,U,46504,999,31975,.28211E-3,.13082E-3,0
NETSAT-3,2020-068V,2026-07-12T13:12:46.134144,15.43547770,.0003506,97.8651,202.0304,222.8875,137.2098,0,U,46505,999,31959,.26275E-3,.11703E-3,0
NETSAT-1,2020-068W,2026-07-12T22:49:34.730688,15.35213925,.000241,97.8748,196.4849,276.5907,83.5061,0,U,46506,999,31925,.24743E-3,.837E-4,0
NETSAT-2,2020-068X,2026-07-12T11:07:23.727648,15.47081469,.00017834,97.8611,203.7420,220.9475,139.1640,0,U,46507,999,31964,.30146263E-3,.15171E-3,0
